ONEWEB-0207             
1 48242U 21031AJ  24145.38376265 -.00000141  00000+0 -41467-3 0  9995
2 48242  87.8963  79.6672 0001882  73.7338 286.3999 13.14500728149269
ONEWEB-0208             
1 48243U 21031AK  24144.83270648 -.00000091  00000+0 -28105-3 0  9991
2 48243  87.8964  79.7922 0002157  78.7099 281.4273 13.14500740149204
ONEWEB-0200             
1 48244U 21031AL  24144.87236088  .00000180  00000+0  45003-3 0  9999
2 48244  87.8963  79.7825 0002259  78.1283 282.0099 13.14501645149138
ONEWEB-0217             
1 48245U 21031AM  24145.19267753  .00000226  00000+0  57624-3 0  9992
2 48245  87.8960  79.7028 0002392  78.9324 281.2075 13.14506133149135
ONEWEB-0211             
1 48767U 21045A   24144.75845465 -.00000083  00000+0 -25395-3 0  9992
2 48767  87.9056  49.3102 0001970  83.4322 276.7032 13.15550294145223
ONEWEB-0223             
1 48768U 21045B   24145.23696688  .00000102  00000+0  23610-3 0  9996
2 48768  87.9055  49.2219 0002405  94.2337 265.9068 13.15547336146415
ONEWEB-0230             
1 48769U 21045C   24145.20843397  .00000081  00000+0  18054-3 0  9997
2 48769  87.9058  49.2979 0001797  83.0536 277.0799 13.15549445146645
ONEWEB-0237             
1 48770U 21045D   24144.74099919  .00000065  00000+0  13823-3 0  9991
2 48770  87.9065  49.3208 0002138  89.4271 270.7104 13.15549613145193
